start=new Date('2022-07-02T00:00:00.000Z').valueOf();
sats=[{"FILE":"3506285","MEAN_MOTION":"15.06388634","MEAN_ELEMENT_THEORY":"SGP4","TIME_SYSTEM":"UTC","TLE_LINE1":"1 47572U 21009AA  22182.56003300 -.00000090  00000-0  12871-4 0  9992","EPOCH":"2022-07-01T13:26:26.851200","OBJECT_ID":"2021-009AA","SEMIMAJOR_AXIS":"6925.383","ECCENTRICITY":"0.00013910","ELEMENT_SET_NO":"999","MEAN_ANOMALY":"298.7811","OBJECT_TYPE":"PAYLOAD","SITE":"AFETR","OBJECT_NAME":"STARLINK-1971","RCS_SIZE":"LARGE","CLASSIFICATION_TYPE":"U","REV_AT_EPOCH":"7789","BSTAR":"0.00001287100000","EPHEMERIS_TYPE":"0","NORAD_CAT_ID":"47572","PERIOD":"95.593","ARG_OF_PERICENTER":"61.3318","RA_OF_ASC_NODE":"299.1332","MEAN_MOTION_DDOT":"0.0000000000000","INCLINATION":"53.0552","COUNTRY_CODE":"US","TLE_LINE2":"2 47572  53.0552 299.1332 0001391  61.3318 298.7811 15.06388634 77893","LAUNCH_DATE":"2021-02-04","PERIAPSIS":"546.285","GP_ID":"207209596","DECAY_DATE":null,"CENTER_NAME":"EARTH","REF_FRAME":"TEME","APOAPSIS":"548.212","MEAN_MOTION_DOT":"-0.00000090"},{"GP_ID":"207209847","REF_FRAME":"TEME","APOAPSIS":"548.197","CENTER_NAME":"EARTH","DECAY_DATE":null,"MEAN_MOTION_DOT":"0.00001687","INCLINATION":"53.0538","MEAN_MOTION_DDOT":"0.0000000000000","RA_OF_ASC_NODE":"299.2316","COUNTRY_CODE":"US","TLE_LINE2":"2 47573  53.0538 299.2316 0001417  58.4920 301.6207 15.06399150 77883","PERIAPSIS":"546.235","LAUNCH_DATE":"2021-02-04","ARG_OF_PERICENTER":"58.4920","CLASSIFICATION_TYPE":"U","OBJECT_NAME":"STARLINK-1975","SITE":"AFETR","RCS_SIZE":"LARGE","BSTAR":"0.00013215000000","REV_AT_EPOCH":"7788","NORAD_CAT_ID":"47573","PERIOD":"95.592","EPHEMERIS_TYPE":"0","OBJECT_TYPE":"PAYLOAD","EPOCH":"2022-07-01T12:54:35.003232","ECCENTRICITY":"0.00014170","SEMIMAJOR_AXIS":"6925.351","OBJECT_ID":"2021-009AB","MEAN_ANOMALY":"301.6207","ELEMENT_SET_NO":"999","MEAN_ELEMENT_THEORY":"SGP4","TIME_SYSTEM":"UTC","TLE_LINE1":"1 47573U 21009AB  22182.53790513  .00001687  00000-0  13215-3 0  9993","FILE":"3506285","MEAN_MOTION":"15.06399150"},{"OBJECT_TYPE":"PAYLOAD","MEAN_ANOMALY":"294.9093","ELEMENT_SET_NO":"999","ECCENTRICITY":"0.00016310","SEMIMAJOR_AXIS":"6925.354","OBJECT_ID":"2021-009AC","EPOCH":"2022-07-01T13:17:09.115008","TLE_LINE1":"1 47574U 21009AC  22182.55357772  .00000574  00000-0  57464-4 0  9991","TIME_SYSTEM":"UTC","MEAN_ELEMENT_THEORY":"SGP4","MEAN_MOTION":"15.06398062","FILE":"3506285","MEAN_MOTION_DOT":"0.00000574","APOAPSIS":"548.349","REF_FRAME":"TEME","CENTER_NAME":"EARTH","DECAY_DATE":null,"GP_ID":"207208596","PERIAPSIS":"546.090","LAUNCH_DATE":"2021-02-04","TLE_LINE2":"2 47574  53.0557 329.1512 0001631  65.2065 294.9093 15.06398062 77462","COUNTRY_CODE":"US","INCLINATION":"53.0557","MEAN_MOTION_DDOT":"0.0000000000000","RA_OF_ASC_NODE":"329.1512","ARG_OF_PERICENTER":"65.2065","NORAD_CAT_ID":"47574","PERIOD":"95.592","EPHEMERIS_TYPE":"0","REV_AT_EPOCH":"7746","BSTAR":"0.00005746400000","CLASSIFICATION_TYPE":"U","SITE":"AFETR","OBJECT_NAME":"STARLINK-1976","RCS_SIZE":"LARGE"},{"ARG_OF_PERICENTER":"68.6657","REV_AT_EPOCH":"7744","BSTAR":"0.00010983000000","EPHEMERIS_TYPE":"0","NORAD_CAT_ID":"47575","PERIOD":"95.592","SITE":"AFETR","RCS_SIZE":"LARGE","OBJECT_NAME":"STARLINK-1977","CLASSIFICATION_TYPE":"U","MEAN_MOTION_DOT":"0.00001355","GP_ID":"207208846","DECAY_DATE":null,"CENTER_NAME":"EARTH","APOAPSIS":"548.199","REF_FRAME":"TEME","TLE_LINE2":"2 47575  53.0558 329.8036 0001422  68.6657 291.4484 15.06399731 77442","COUNTRY_CODE":"US","LAUNCH_DATE":"2021-02-04","PERIAPSIS":"546.230","MEAN_MOTION_DDOT":"0.0000000000000","RA_OF_ASC_NODE":"329.8036","INCLINATION":"53.0558","TIME_SYSTEM":"UTC","TLE_LINE1":"1 47575U 21009AD  22182.40981962  .00001355  00000-0  10983-3 0  9992","MEAN_ELEMENT_THEORY":"SGP4","MEAN_MOTION":"15.06399731","FILE":"3506285","OBJECT_TYPE":"PAYLOAD","ELEMENT_SET_NO":"999","MEAN_ANOMALY":"291.4484","EPOCH":"2022-07-01T09:50:08.415168","OBJECT_ID":"2021-009AD","SEMIMAJOR_AXIS":"6925.349","ECCENTRICITY":"0.00014220"},{"ARG_OF_PERICENTER":"56.4986","CLASSIFICATION_TYPE":"U","SITE":"AFETR","RCS_SIZE":"LARGE","OBJECT_NAME":"STARLINK-1978","BSTAR":"0.00011792000000","REV_AT_EPOCH":"7803","PERIOD":"95.592","NORAD_CAT_ID":"47576","EPHEMERIS_TYPE":"0","GP_ID":"207209097","APOAPSIS":"548.202","REF_FRAME":"TEME","DECAY_DATE":null,"CENTER_NAME":"EARTH","MEAN_MOTION_DOT":"0.00001475","INCLINATION":"53.0565","RA_OF_ASC_NODE":"289.0578","MEAN_MOTION_DDOT":"0.0000000000000","TLE_LINE2":"2 47576  53.0565 289.0578 0001404  56.4986 303.6137 15.06394893 78030","COUNTRY_CODE":"US","PERIAPSIS":"546.257","LAUNCH_DATE":"2021-02-04","MEAN_ELEMENT_THEORY":"SGP4","TIME_SYSTEM":"UTC","TLE_LINE1":"1 47576U 21009AE  22182.57569723  .00001475  00000-0  11792-3 0  9990","FILE":"3506285","MEAN_MOTION":"15.06394893","OBJECT_TYPE":"PAYLOAD","EPOCH":"2022-07-01T13:49:00.240672","SEMIMAJOR_AXIS":"6925.364","ECCENTRICITY":"0.00014040","OBJECT_ID":"2021-009AE","MEAN_ANOMALY":"303.6137","ELEMENT_SET_NO":"999"},{"OBJECT_TYPE":"PAYLOAD","MEAN_ANOMALY":"285.9295","ELEMENT_SET_NO":"999","EPOCH":"2022-07-01T13:12:30.625344","SEMIMAJOR_AXIS":"6925.362","ECCENTRICITY":"0.00014990","OBJECT_ID":"2021-009AF","TIME_SYSTEM":"UTC","TLE_LINE1":"1 47577U 21009AF  22182.55035446  .00000128  00000-0  27479-4 0  9993","MEAN_ELEMENT_THEORY":"SGP4","MEAN_MOTION":"15.06395572","FILE":"3506285","MEAN_MOTION_DOT":"0.00000128","GP_ID":"207209348","APOAPSIS":"548.265","REF_FRAME":"TEME","DECAY_DATE":null,"CENTER_NAME":"EARTH","TLE_LINE2":"2 47577  53.0562 304.1675 0001499  74.1859 285.9295 15.06395572 77823","COUNTRY_CODE":"US","PERIAPSIS":"546.189","LAUNCH_DATE":"2021-02-04","INCLINATION":"53.0562","MEAN_MOTION_DDOT":"0.0000000000000","RA_OF_ASC_NODE":"304.1675","ARG_OF_PERICENTER":"74.1859","BSTAR":"0.00002747900000","REV_AT_EPOCH":"7782","PERIOD":"95.592","NORAD_CAT_ID":"47577","EPHEMERIS_TYPE":"0","CLASSIFICATION_TYPE":"U","RCS_SIZE":"LARGE","SITE":"AFETR","OBJECT_NAME":"STARLINK-1979"},{"FILE":"3506285","MEAN_MOTION":"15.06400775","MEAN_ELEMENT_THEORY":"SGP4","TLE_LINE1":"1 47578U 21009AG  22182.54435755  .00000017  00000-0  20026-4 0  9998","TIME_SYSTEM":"UTC","OBJECT_ID":"2021-009AG","SEMIMAJOR_AXIS":"6925.346","ECCENTRICITY":"0.00015920","EPOCH":"2022-07-01T13:03:52.492320","ELEMENT_SET_NO":"999","MEAN_ANOMALY":"293.3623","OBJECT_TYPE":"PAYLOAD","RCS_SIZE":"LARGE","SITE":"AFETR","OBJECT_NAME":"STARLINK-1980","CLASSIFICATION_TYPE":"U","EPHEMERIS_TYPE":"0","PERIOD":"95.592","NORAD_CAT_ID":"47578","REV_AT_EPOCH":"7774","BSTAR":"0.00002002600000","ARG_OF_PERICENTER":"66.7534","MEAN_MOTION_DDOT":"0.0000000000000","RA_OF_ASC_NODE":"309.1988","INCLINATION":"53.0587","LAUNCH_DATE":"2021-02-04","PERIAPSIS":"546.109","COUNTRY_CODE":"US","TLE_LINE2":"2 47578  53.0587 309.1988 0001592  66.7534 293.3623 15.06400775 77745","CENTER_NAME":"EARTH","DECAY_DATE":null,"APOAPSIS":"548.314","REF_FRAME":"TEME","GP_ID":"207208096","MEAN_MOTION_DOT":"0.00000017"},{"OBJECT_ID":"2021-009AH","SEMIMAJOR_AXIS":"6925.360","ECCENTRICITY":"0.00016270","EPOCH":"2022-07-01T14:14:12.812640","ELEMENT_SET_NO":"999","MEAN_ANOMALY":"304.7261","OBJECT_TYPE":"PAYLOAD","FILE":"3506285","MEAN_MOTION":"15.06396286","MEAN_ELEMENT_THEORY":"SGP4","TLE_LINE1":"1 47579U 21009AH  22182.59320385  .00001548  00000-0  12282-3 0  9990","TIME_SYSTEM":"UTC","MEAN_MOTION_DDOT":"0.0000000000000","RA_OF_ASC_NODE":"298.9826","INCLINATION":"53.0548","LAUNCH_DATE":"2021-02-04","PERIAPSIS":"546.098","TLE_LINE2":"2 47579  53.0548 298.9826 0001627  55.3881 304.7261 15.06396286 77899","COUNTRY_CODE":"US","DECAY_DATE":null,"CENTER_NAME":"EARTH","APOAPSIS":"548.352","REF_FRAME":"TEME","GP_ID":"207208346","MEAN_MOTION_DOT":"0.00001548","OBJECT_NAME":"STARLINK-1981","SITE":"AFETR","RCS_SIZE":"LARGE","CLASSIFICATION_TYPE":"U","EPHEMERIS_TYPE":"0","NORAD_CAT_ID":"47579","PERIOD":"95.592","BSTAR":"0.00012282000000","REV_AT_EPOCH":"7789","ARG_OF_PERICENTER":"55.3881"},{"OBJECT_TYPE":"PAYLOAD","ELEMENT_SET_NO":"999","MEAN_ANOMALY":"298.5141","OBJECT_ID":"2021-009AJ","ECCENTRICITY":"0.00013950","SEMIMAJOR_AXIS":"6925.370","EPOCH":"2022-07-01T13:09:11.023200","TLE_LINE1":"1 47580U 21009AJ  22182.54804425 -.00000074  00000-0  13924-4 0  9998","TIME_SYSTEM":"UTC","MEAN_ELEMENT_THEORY":"SGP4","MEAN_MOTION":"15.06392887","FILE":"3506285","MEAN_MOTION_DOT":"-0.00000074","DECAY_DATE":null,"CENTER_NAME":"EARTH","REF_FRAME":"TEME","APOAPSIS":"548.201","GP_ID":"207209597","LAUNCH_DATE":"2021-02-04","PERIAPSIS":"546.269","COUNTRY_CODE":"US","TLE_LINE2":"2 47580  53.0542 309.1866 0001395  61.5989 298.5141 15.06392887 77748","RA_OF_ASC_NODE":"309.1866","MEAN_MOTION_DDOT":"0.0000000000000","INCLINATION":"53.0542","ARG_OF_PERICENTER":"61.5989","EPHEMERIS_TYPE":"0","PERIOD":"95.593","NORAD_CAT_ID":"47580","BSTAR":"0.00001392400000","REV_AT_EPOCH":"7774","SITE":"AFETR","OBJECT_NAME":"STARLINK-1982","RCS_SIZE":"LARGE","CLASSIFICATION_TYPE":"U"},{"OBJECT_TYPE":"PAYLOAD","OBJECT_ID":"2021-009AK","ECCENTRICITY":"0.00013430","SEMIMAJOR_AXIS":"6925.332","EPOCH":"2022-07-01T14:15:32.048352","ELEMENT_SET_NO":"999","MEAN_ANOMALY":"293.1518","MEAN_ELEMENT_THEORY":"SGP4","TLE_LINE1":"1 47581U 21009AK  22182.59412093  .00000141  00000-0  28326-4 0  9996","TIME_SYSTEM":"UTC","FILE":"3506285","MEAN_MOTION":"15.06405373","CENTER_NAME":"EARTH","DECAY_DATE":null,"REF_FRAME":"TEME","APOAPSIS":"548.127","GP_ID":"207209848","MEAN_MOTION_DOT":"0.00000141","MEAN_MOTION_DDOT":"0.0000000000000","RA_OF_ASC_NODE":"288.9723","INCLINATION":"53.0549","LAUNCH_DATE":"2021-02-04","PERIAPSIS":"546.267","COUNTRY_CODE":"US","TLE_LINE2":"2 47581  53.0549 288.9723 0001343  66.9613 293.1518 15.06405373 78035","ARG_OF_PERICENTER":"66.9613","SITE":"AFETR","RCS_SIZE":"LARGE","OBJECT_NAME":"STARLINK-1984","CLASSIFICATION_TYPE":"U","EPHEMERIS_TYPE":"0","NORAD_CAT_ID":"47581","PERIOD":"95.592","BSTAR":"0.00002832600000","REV_AT_EPOCH":"7803"}];
